[{"OBJECT_NAME":"OBJECT N","OBJECT_ID":"2025-274N","EPOCH":"2026-03-09T18:30:08.486784","MEAN_MOTION":14.93734049,"ECCENTRICITY":0.00150768,"INCLINATION":97.7444,"RA_OF_ASC_NODE":359.6594,"ARG_OF_PERICENTER":356.6797,"MEAN_ANOMALY":3.432,"EPHEMERIS_TYPE":0,"CLASSIFICATION_TYPE":"U","NORAD_CAT_ID":66662,"ELEMENT_SET_NO":999,"REV_AT_EPOCH":1539,"BSTAR":0.00030653628,"MEAN_MOTION_DOT":3.195e-5,"MEAN_MOTION_DDOT":0},{"OBJECT_NAME":"PSLV DEB","OBJECT_ID":"2001-049CS","EPOCH":"2026-03-09T17:28:51.612960","MEAN_MOTION":14.96014952,"ECCENTRICITY":0.00345383,"INCLINATION":98.0485,"RA_OF_ASC_NODE":147.0031,"ARG_OF_PERICENTER":251.2293,"MEAN_ANOMALY":231.4093,"EPHEMERIS_TYPE":0,"CLASSIFICATION_TYPE":"U","NORAD_CAT_ID":27146,"ELEMENT_SET_NO":999,"REV_AT_EPOCH":30162,"BSTAR":0.00055338741,"MEAN_MOTION_DOT":6.222e-5,"MEAN_MOTION_DDOT":0}]
